STARLINK-2568           
1 48406U 21038BF  24174.53878977  .00000268  00000+0  36926-4 0  9993
2 48406  53.0556 268.0265 0001416 120.1978 239.9151 15.06391338173085
STARLINK-2595           
1 48407U 21038BG  24174.52501226  .00000497  00000+0  51537-4 0  9992
2 48407  53.0552 267.3024 0001331  88.3347 271.7794 15.06982285173082
STARLINK-2592           
1 48408U 21038BH  24174.66408839  .00012161  00000+0  83326-3 0  9995
2 48408  53.0553 267.4663 0001220  95.2556 264.8573 15.06427913173091
STARLINK-2596           
1 48409U 21038BJ  24175.00001157  .01133257  00000+0  32456-1 0  9994
2 48409  53.0503 269.6957 0001240  74.2130 111.3735 15.32477068  5808
STARLINK-2563           
1 48410U 21038BK  24175.15663875  .00000194  00000+0  31949-4 0  9994
2 48410  53.0534 220.2531 0001451  97.5038 262.6116 15.06402864174391
STARLINK-2505           
1 48411U 21038BL  24174.51022710 -.00000272  00000+0  59505-6 0  9999
2 48411  53.0548 218.1597 0001091  87.5595 272.5519 15.06392378173789
STARLINK-2581           
1 48412U 21038BM  24175.12581774  .00001274  00000+0  10442-3 0  9994
2 48412  53.0536 215.8281 0000856  75.6231 284.4852 15.06399007174457
STARLINK-2461           
1 48428U 21040A   24175.19995103 -.00000626  00000+0 -23127-4 0  9993
2 48428  53.0556 110.0592 0001517 105.6476 254.4681 15.06393576173717
STARLINK-2749           
1 48429U 21040B   24175.16953184  .00005381  00000+0  37992-3 0  9999
2 48429  53.0546  80.2077 0001327  86.6012 273.5129 15.06394705174126
STARLINK-2700           
1 48431U 21040D   24175.14878618  .00000191  00000+0  31734-4 0  9991
2 48431  53.0552  75.2909 0001471 104.3590 255.7562 15.06389934173369
STARLINK-2680           
1 48432U 21040E   24174.93092505  .00002752  00000+0  20355-3 0  9992
2 48432  53.0560  71.6625 0001358  81.5581 278.5562 15.06401871172945
STARLINK-2699           
1 48433U 21040F   24174.94335886  .00001967  00000+0  15094-3 0  9997
2 48433  53.0554  76.4919 0001415  87.8705 272.2446 15.06391046172875
STARLINK-2692           
1 48434U 21040G   24174.90790432  .00000780  00000+0  71257-4 0  9992
2 48434  53.0546  81.8738 0001720 114.2160 245.9009 15.06393732172804
STARLINK-2633           
1 48435U 21040H   24174.78159971  .00002832  00000+0  20901-3 0  9995
2 48435  53.0529  91.9455 0001490  86.0255 274.0904 15.06391007172641
STARLINK-2639           
1 48436U 21040J   24174.24020492 -.00000327  00000+0 -30514-5 0  9994
2 48436  53.0558 109.3656 0001516  97.1325 262.9837 15.06410355172358
STARLINK-2642           
1 48437U 21040K   24175.15341543  .00001194  00000+0  99091-4 0  9994
2 48437  53.0544 115.2664 0001439 100.9942 259.1209 15.06390063173637
STARLINK-2640           
1 48438U 21040L   24175.19123017  .00001097  00000+0  92553-4 0  9991
2 48438  53.0550 105.3645 0001467  90.6734 269.4423 15.06392088173775
STARLINK-2583           
1 48439U 21040M   24175.09536837  .00000491  00000+0  51896-4 0  9991
2 48439  53.0561 105.5283 0001617  96.3011 263.8162 15.06387916173767
STARLINK-2682           
1 48440U 21040N   24174.82629235  .00000556  00000+0  56233-4 0  9990
2 48440  53.0569 106.7381 0001675  85.9608 274.1572 15.06386847172894
STARLINK-2702           
1 48441U 21040P   24174.82260650  .00000291  00000+0  38423-4 0  9990
2 48441  53.0546 106.7503 0001759  93.3048 266.8142 15.06394905172446
STARLINK-2644           
1 48442U 21040Q   24174.81891103 -.00003113  00000+0 -19026-3 0  9998
2 48442  53.0536 106.7726 0001392  82.6966 277.4181 15.06382103172444
STARLINK-2663           
1 48443U 21040R   24175.08061751  .00000923  00000+0  80892-4 0  9991
2 48443  53.0551 105.5900 0001470  77.5530 282.5623 15.06394340173760
STARLINK-2645           
1 48444U 21040S   24175.20962470  .00002372  00000+0  17805-3 0  9997
2 48444  53.0543 105.0158 0001587  84.8909 275.2261 15.06403884173785
STARLINK-2634           
1 48445U 21040T   24175.07324768  .00000450  00000+0  49125-4 0  9991
2 48445  53.0561 105.6278 0001745  70.3278 289.7900 15.06392029173766
STARLINK-2247           
1 48446U 21040U   24174.93687092  .00014523  00000+0  99191-3 0  9991
2 48446  53.0535 106.2444 0001447 102.0022 258.1129 15.06399123172460
STARLINK-2632           
1 48448U 21040W   24174.95063983  .00127112  00000+0  95058-3 0  9999
2 48448  53.0521  61.1785 0001096 239.1820 120.9090 15.71814555173098
STARLINK-2655           
1 48449U 21040X   24175.12853932  .00000755  00000+0  69562-4 0  9996
2 48449  53.0547 105.3780 0001358 100.5125 259.6017 15.06392995173774
STARLINK-2660           
1 48450U 21040Y   24174.79585903  .00001876  00000+0  14484-3 0  9997
2 48450  53.0560 106.9025 0001582 100.5183 259.5984 15.06394348172442
STARLINK-2652           
1 48451U 21040Z   24175.10362099  .00007284  00000+0  64786-4 0  9993
2 48451  53.0537  60.3802 0000950 117.5237 242.5876 15.69762170174398
STARLINK-2703           
1 48452U 21040AA  24175.12116139  .00000239  00000+0  34941-4 0  9991
2 48452  53.0553 105.3839 0001452  96.9606 263.1548 15.06389451173779
STARLINK-2620           
1 48453U 21040AB  24175.18382637 -.00000286  00000+0 -32423-6 0  9995
2 48453  53.0549 105.1294 0001287 103.1031 257.0102 15.06392591173785
STARLINK-2654           
1 48454U 21040AC  24175.18013965  .00000006  00000+0  19290-4 0  9994
2 48454  53.0548 105.1392 0001454 109.3406 250.7741 15.06389755173781
STARLINK-2497           
1 48455U 21040AD  24175.17644627  .00000652  00000+0  62684-4 0  9991
2 48455  53.0547 105.1638 0001615 101.0104 259.1066 15.06395922173109
STARLINK-2508           
1 48456U 21040AE  24175.00001157  .00124066  00000+0  93182-3 0  9991
2 48456  53.0521  55.2815 0000999 259.8521 264.6813 15.71723562  5802
STARLINK-2698           
1 48458U 21040AG  24175.05252502 -.00000582  00000+0 -20179-4 0  9995
2 48458  53.0539 110.8102 0001412  90.2297 269.8853 15.06390442172955
STARLINK-2579           
1 48459U 21040AH  24175.04518463  .00000364  00000+0  43347-4 0  9994
2 48459  53.0557 111.1113 0001368  99.3179 260.7964 15.06390477173010
STARLINK-2582           
1 48460U 21040AJ  24174.79817790  .00001062  00000+0  90211-4 0  9990
2 48460  53.0546 111.8661 0001422  92.6423 267.4729 15.06389562172884
STARLINK-2693           
1 48461U 21040AK  24175.21100211 -.00000026  00000+0  17128-4 0  9998
2 48461  53.0552 110.0088 0001516  66.6981 293.4168 15.06403087173718
STARLINK-2683           
1 48462U 21040AL  24174.86226175  .00000471  00000+0  50524-4 0  9997
2 48462  53.0547 116.8535 0001589  90.3702 269.7469 15.06389726172317
STARLINK-2689           
1 48463U 21040AM  24175.20039361 -.00001825  00000+0 -10364-3 0  9999
2 48463  53.0564 115.0560 0001907  91.5665 268.5543 15.06394535173642
STARLINK-2686           
1 48464U 21040AN  24175.11286938  .00000334  00000+0  41342-4 0  9997
2 48464  53.0561 115.4455 0001475  69.6985 290.4162 15.06394114173631
STARLINK-2681           
1 48465U 21040AP  24174.85854064  .00000009  00000+0  19510-4 0  9990
2 48465  53.0556 116.5938 0001568  72.1042 288.0118 15.06401327172324
STARLINK-2687           
1 48466U 21040AQ  24175.10918702 -.00000330  00000+0 -32442-5 0  9999
2 48466  53.0549 115.4679 0001441  86.8495 273.2659 15.06391880173634
STARLINK-2659           
1 48467U 21040AR  24174.86959506 -.00000813  00000+0 -35713-4 0  9998
2 48467  53.0552 116.5415 0001590  98.8920 261.2249 15.06399240172325
STARLINK-2685           
1 48468U 21040AS  24175.11655772 -.00000167  00000+0  76997-5 0  9997
2 48468  53.0541 115.4294 0001456  75.9368 284.1782 15.06398592173630
STARLINK-2661           
1 48469U 21040AT  24174.86590978  .00000782  00000+0  71437-4 0  9990
2 48469  53.0548 116.5562 0001501  94.7484 265.3677 15.06389862172326
STARLINK-2675           
1 48470U 21040AU  24174.82909360  .00000876  00000+0  77698-4 0  9996
2 48470  53.0548 117.0698 0001456 102.7044 257.4108 15.06390010173582
STARLINK-2684           
1 48471U 21040AV  24175.12024212 -.00000229  00000+0  35072-5 0  9999
2 48471  53.0559 115.4112 0001587  99.7872 260.3297 15.06399293173637
STARLINK-2722           
1 48472U 21040AW  24175.10181208 -.00000371  00000+0 -60050-5 0  9990
2 48472  53.0568 115.4859 0001650  90.8559 269.2619 15.06392845172799
STARLINK-2658           
1 48473U 21040AX  24174.87328281 -.00000668  00000+0 -25922-4 0  9995
2 48473  53.0569 116.5256 0001658  96.1664 263.9514 15.06401603172314
STARLINK-2697           
1 48474U 21040AY  24175.10550128  .00000653  00000+0  62730-4 0  9990
2 48474  53.0548 115.4875 0001432  85.7141 274.4012 15.06394437173622
STARLINK-2619           
1 48475U 21040AZ  24174.87697171  .00000183  00000+0  31200-4 0  9990
2 48475  53.0557 116.5064 0001559 101.5213 258.5951 15.06389435173595
STARLINK-2723           
1 48476U 21040BA  24174.83274178  .00000555  00000+0  56141-4 0  9999
2 48476  53.0546 116.7081 0001418  83.5349 276.5802 15.06389138172301
STARLINK-2728           
1 48478U 21040BC  24175.14972863 -.00000790  00000+0 -34183-4 0  9997
2 48478  53.0548 115.2836 0001342  95.6622 264.4520 15.06394945172968
STARLINK-2755           
1 48479U 21040BD  24175.21239049  .00000570  00000+0  57157-4 0  9998
2 48479  53.0537 115.0014 0001424  94.7587 265.3565 15.06390571173640
STARLINK-2690           
1 48480U 21040BE  24175.12471582  .00034823  00000+0  27928-3 0  9990
2 48480  53.0532  80.1016 0000740 155.0168 205.0885 15.70706754174122
STARLINK-2706           
1 48481U 21040BF  24174.86871066  .00000327  00000+0  40850-4 0  9994
2 48481  53.0543 126.8240 0001751  85.4579 274.6610 15.06387529172161
STARLINK-2525           
1 48482U 21040BG  24175.16724216  .00000054  00000+0  22507-4 0  9999
2 48482  53.0543 125.2040 0001483  89.7086 270.4073 15.06384327172660
STARLINK-2531           
1 48483U 21040BH  24174.89815976 -.00000509  00000+0 -15266-4 0  9994
2 48483  53.0532 126.4105 0001847 110.1930 249.9257 15.06392621172172
